[{"OBJECT_NAME":"STARLINK-34398","OBJECT_ID":"2025-130H","EPOCH":"2026-03-09T07:47:36.043008","MEAN_MOTION":15.30194482,"ECCENTRICITY":0.00012443,"INCLINATION":53.1598,"RA_OF_ASC_NODE":90.484,"ARG_OF_PERICENTER":88.7999,"MEAN_ANOMALY":271.3144,"EPHEMERIS_TYPE":0,"CLASSIFICATION_TYPE":"U","NORAD_CAT_ID":64445,"ELEMENT_SET_NO":999,"REV_AT_EPOCH":4064,"BSTAR":0.00077254153,"MEAN_MOTION_DOT":0.00022587,"MEAN_MOTION_DDOT":0},{"OBJECT_NAME":"KUIPER-00252","OBJECT_ID":"2025-301AA","EPOCH":"2026-03-09T22:00:01.999584","MEAN_MOTION":15.32961042,"ECCENTRICITY":0.00108625,"INCLINATION":51.8682,"RA_OF_ASC_NODE":64.6463,"ARG_OF_PERICENTER":55.9089,"MEAN_ANOMALY":330.8749,"EPHEMERIS_TYPE":0,"CLASSIFICATION_TYPE":"U","NORAD_CAT_ID":67157,"ELEMENT_SET_NO":999,"REV_AT_EPOCH":542,"BSTAR":-0.017504489,"MEAN_MOTION_DOT":-0.00529484,"MEAN_MOTION_DDOT":0}]
